COSMOS 2425 (716)       
1 29670U 06062A   18054.99586815  .00000018  00000-0  10000-3 0  9990
2 29670  65.3354 296.3640 0022745 348.2280   6.3480  2.13104910 86892
COSMOS 2426 (717)       
1 29671U 06062B   18054.52600486  .00000016  00000-0  10000-3 0  9999
2 29671  65.3523 296.4745 0016267 161.6477  49.0313  2.13103111 86896
COSMOS 2433 (720)       
1 32275U 07052A   18055.02143174  .00000022  00000-0  10000-3 0  9992
2 32275  65.6350  57.1602 0005250 275.5564 290.3300  2.13104773 80411
COSMOS 2432 (719)       
1 32276U 07052B   18055.03450002  .00000022  00000-0  10000-3 0  9995
2 32276  65.6464  57.2350 0013174 325.7663 202.3522  2.13104015 80419
COSMOS 2434 (721)       
1 32393U 07065A   18055.29214493  .00000021  00000-0  00000+0 0  9993
2 32393  64.9502 295.3813 0004257  87.5210 214.4521  2.13102941 79121
COSMOS 2436 (723)       
1 32395U 07065C   18055.21785865  .00000021  00000-0  10000-3 0  9998
2 32395  64.9593 295.4346 0016748   2.0338 292.8872  2.13104309 79057
COSMOS 2456 (730)       
1 36111U 09070A   18055.08318078  .00000013  00000-0  00000-0 0  9996
2 36111  64.1844 174.9663 0003497 332.2799 341.3351  2.13102868 63780
COSMOS 2457 (733)       
1 36112U 09070B   18054.99963573  .00000015  00000-0  00000-0 0  9994
2 36112  64.1654 174.8823 0006449 156.4120 220.5360  2.13101568 63796
COSMOS 2458 (734)       
1 36113U 09070C   18054.91958333  .00000016  00000-0  10000-3 0  9990
2 36113  64.1717 174.8947 0002235  43.8710 319.9155  2.13102144 63793
COSMOS 2459 (731)       
1 36400U 10007A   18055.36632252  .00000021  00000-0  10000-3 0  9996
2 36400  65.5451  56.2235 0028271 346.8173 343.5133  2.13102286 62146
COSMOS 2461 (735)       
1 36401U 10007B   18054.65119806  .00000020  00000-0  10000-3 0  9992
2 36401  65.5366  56.2231 0004960  44.7532   7.5505  2.13102247 62136
COSMOS 2460 (732)       
1 36402U 10007C   18054.82043331  .00000020  00000-0  10000-3 0  9991
2 36402  65.5273  56.1865 0002708 292.4300 290.5727  2.13101767 62135
COSMOS 2464 (736)       
1 37139U 10041C   18055.36844521  .00000021  00000-0  00000+0 0  9993
2 37139  64.5529 295.2400 0025288  12.7346 215.5479  2.13102734 58218
COSMOS 2471 (701K)      
1 37372U 11009A   18055.03450002  .00000021  00000-0  00000-0 0  9999
2 37372  65.5253  56.1255 0009512 243.2063 285.5650  2.13107733 54413
COSMOS 2474 (742)       
1 37829U 11055A   18054.97484113  .00000016  00000-0  00000-0 0  9993
2 37829  64.5080 175.6391 0007145 243.5203 205.6357  2.13101900 49785
COSMOS 2476 (744)       
1 37867U 11064A   18054.93242049  .00000017  00000-0  00000-0 0  9992
2 37867  64.4881 175.7059 0016801 239.7393 222.8796  2.13101989 49137
COSMOS 2477 (745)       
1 37868U 11064B   18055.05279883  .00000015  00000-0  00000-0 0  9991
2 37868  64.4962 175.7491 0014591 241.0007 132.9533  2.13101772 49095
COSMOS 2475 (743)       
1 37869U 11064C   18055.41837301  .00000010  00000-0  00000+0 0  9991
2 37869  64.5037 175.7307 0018944 268.8159 342.2188  2.13101885 49106
COSMOS 2485 (747)       
1 39155U 13019A   18054.92250035  .00000017  00000-0  00000-0 0  9999
2 39155  64.6575 175.7914 0017285 234.4764 265.4671  2.13101938 37600
COSMOS 2492 (754)       
1 39620U 14012A   18054.48866186  .00000019  00000-0  10000-3 0  9997
2 39620  65.4155  56.0994 0016679 323.6063 238.1171  2.13103496 30547
COSMOS 2500 (755)       
1 40001U 14032A   18055.15642660  .00000020  00000-0  00000-0 0  9996
2 40001  65.3578  56.0555 0006908 230.0595 346.4461  2.13102830 28776
COSMOS 2501 (702K)      
1 40315U 14075A   18054.43317179  .00000014  00000-0  00000-0 0  9998
2 40315  64.2803 296.5279 0014246 208.8237 335.7640  2.13098534 25162
COSMOS 2514 (751)       
1 41330U 16008A   18054.92635567  .00000019  00000-0  00000-0 0  9997
2 41330  65.1594  56.1443 0010464 231.0487 349.5937  2.13103398 15934
COSMOS 2516 (753)       
1 41554U 16032A   18054.48598309  .00000015  00000-0  00000-0 0  9991
2 41554  64.5020 296.3578 0010380 222.9384 271.3533  2.13101770 13538
COSMOS 2522 (752)       
1 42939U 17055A   18054.92033832  .00000017  00000-0  00000-0 0  9991
2 42939  64.7280 296.2763 0006245 260.6368  73.2828  2.13102076  3295
